0 COSMOS 1579 COOLANT
1 26519U 84069L   13283.18144627  .00000045  00000-0  10945-3 0  5559
2 26519 065.0502 139.7150 0044725 189.1488 170.8765 13.89285217692939
0 COSMOS 1579 COOLANT
1 26519U 84069L   13289.15615387  .00000052  00000-0  11496-3 0  5570
2 26519 065.0486 124.1346 0044572 186.9060 173.1445 13.89287055693761
0 COSMOS 1579 COOLANT
1 26519U 84069L   13291.17171519  .00000052  00000-0  11496-3 0  5580
2 26519 065.0486 118.8799 0044572 186.2100 173.8417 13.89287625694042
0 COSMOS 1579 COOLANT
1 26519U 84069L   13293.90711729  .00000058  00000-0  12041-3 0  5590
2 26519 065.0464 111.7391 0044160 185.3175 174.7435 13.89288639694421
0 COSMOS 1579 COOLANT
1 26519U 84069L   13296.06664476  .00000061  00000-0  12216-3 0  5606
2 26519 065.0463 106.1082 0044308 184.3456 175.7240 13.89289378694729
